{
  "norad_id": 55657,
  "name": "STARLINK-5328",
  "history": [
    {
      "epoch": "2026-03-28T19:17:21.579072Z",
      "apogee_km": 574.409908286897,
      "perigee_km": 569.5859586322804,
      "latitude_deg": -5.104007794117069e-05,
      "longitude_deg": 0.8671483027051108,
      "height_km": 574.3461844832558,
      "semi_major_axis_km": 6950.134933459588,
      "eccentricity": 0.00034704,
      "inclination_deg": 69.9992,
      "raan_deg": 116.426,
      "arg_perigee_deg": 271.8914,
      "mean_anomaly_deg": 88.1847,
      "mean_motion_rev_day": 14.98348742
    },
    {
      "epoch": "2026-03-29T04:54:10.354464Z",
      "apogee_km": 574.453277497496,
      "perigee_km": 569.6576446993367,
      "latitude_deg": -6.270021775084949e-05,
      "longitude_deg": -144.7414011087437,
      "height_km": 574.4805512445904,
      "semi_major_axis_km": 6950.192461098416,
      "eccentricity": 0.000345,
      "inclination_deg": 69.9984,
      "raan_deg": 115.4155,
      "arg_perigee_deg": 270.0642,
      "mean_anomaly_deg": 90.0121,
      "mean_motion_rev_day": 14.98330139
    },
    {
      "epoch": "2026-03-30T04:56:11.965056Z",
      "apogee_km": 574.6409647780765,
      "perigee_km": 569.5256026492634,
      "latitude_deg": 5.771961657618583e-05,
      "longitude_deg": -148.7599999745547,
      "height_km": 574.5597732158562,
      "semi_major_axis_km": 6950.22028371367,
      "eccentricity": 0.000368,
      "inclination_deg": 69.9984,
      "raan_deg": 112.8906,
      "arg_perigee_deg": 268.9131,
      "mean_anomaly_deg": 91.1607,
      "mean_motion_rev_day": 14.98321142
    },
    {
      "epoch": "2026-03-30T04:56:11.965920Z",
      "apogee_km": 574.6411037824828,
      "perigee_km": 569.5254636448581,
      "latitude_deg": 5.988631580992724e-05,
      "longitude_deg": -148.7600028000365,
      "height_km": 574.5597758529588,
      "semi_major_axis_km": 6950.22028371367,
      "eccentricity": 0.00036802,
      "inclination_deg": 69.9984,
      "raan_deg": 112.8906,
      "arg_perigee_deg": 268.9131,
      "mean_anomaly_deg": 91.1607,
      "mean_motion_rev_day": 14.98321142
    },
    {
      "epoch": "2026-03-30T11:20:44.165760Z",
      "apogee_km": 574.5164261431564,
      "perigee_km": 569.614448364162,
      "latitude_deg": 9.688843344102499e-06,
      "longitude_deg": 114.16950734249254,
      "height_km": 574.4969233355137,
      "semi_major_axis_km": 6950.202437253659,
      "eccentricity": 0.00035265,
      "inclination_deg": 69.9985,
      "raan_deg": 112.2175,
      "arg_perigee_deg": 269.9149,
      "mean_anomaly_deg": 90.1606,
      "mean_motion_rev_day": 14.98326913
    },
    {
      "epoch": "2026-03-30T19:21:25.205472Z",
      "apogee_km": 574.5018321168855,
      "perigee_km": 569.7928754615068,
      "latitude_deg": -4.119005400035868e-05,
      "longitude_deg": -7.172125993946815,
      "height_km": 574.3558727500945,
      "semi_major_axis_km": 6950.284353789196,
      "eccentricity": 0.00033876,
      "inclination_deg": 69.9987,
      "raan_deg": 111.3759,
      "arg_perigee_deg": 275.3405,
      "mean_anomaly_deg": 84.7367,
      "mean_motion_rev_day": 14.98300424
    },
    {
      "epoch": "2026-03-31T11:22:45.122304Z",
      "apogee_km": 574.428203354234,
      "perigee_km": 569.7005373780839,
      "latitude_deg": -2.9245534273203185e-05,
      "longitude_deg": 110.15408408289872,
      "height_km": 574.5226187216548,
      "semi_major_axis_km": 6950.201370366159,
      "eccentricity": 0.00034011,
      "inclination_deg": 69.999,
      "raan_deg": 109.6931,
      "arg_perigee_deg": 269.2613,
      "mean_anomaly_deg": 90.8156,
      "mean_motion_rev_day": 14.98327258
    },
    {
      "epoch": "2026-04-01T17:49:18.482592Z",
      "apogee_km": 574.5652186032194,
      "perigee_km": 569.6500056135365,
      "latitude_deg": -5.203293492645726e-05,
      "longitude_deg": 9.066143127294538,
      "height_km": 574.382834145351,
      "semi_major_axis_km": 6950.244612108378,
      "eccentricity": 0.0003536,
      "inclination_deg": 69.9988,
      "raan_deg": 106.4944,
      "arg_perigee_deg": 273.5603,
      "mean_anomaly_deg": 86.5151,
      "mean_motion_rev_day": 14.98313275
    },
    {
      "epoch": "2026-04-02T17:51:18.395424Z",
      "apogee_km": 574.5441677441513,
      "perigee_km": 569.5166946311274,
      "latitude_deg": -5.6649689535911556e-05,
      "longitude_deg": 5.054292559036061,
      "height_km": 574.4181339186042,
      "semi_major_axis_km": 6950.1674311876395,
      "eccentricity": 0.00036168,
      "inclination_deg": 69.9986,
      "raan_deg": 103.9692,
      "arg_perigee_deg": 270.9173,
      "mean_anomaly_deg": 89.1571,
      "mean_motion_rev_day": 14.98338233
    },
    {
      "epoch": "2026-04-03T11:28:47.383680Z",
      "apogee_km": 574.46748673612,
      "perigee_km": 569.6327975562999,
      "latitude_deg": -4.394814037312607e-05,
      "longitude_deg": 98.10809141223028,
      "height_km": 574.4979932897312,
      "semi_major_axis_km": 6950.187142146209,
      "eccentricity": 0.00034781,
      "inclination_deg": 69.9987,
      "raan_deg": 102.1176,
      "arg_perigee_deg": 269.5254,
      "mean_anomaly_deg": 90.5506,
      "mean_motion_rev_day": 14.98331859
    },
    {
      "epoch": "2026-04-04T09:54:40.992480Z",
      "apogee_km": 574.5092962660292,
      "perigee_km": 569.6271940936058,
      "latitude_deg": 3.3074237214634324e-05,
      "longitude_deg": 118.35731751063793,
      "height_km": 574.5508108871752,
      "semi_major_axis_km": 6950.205245179817,
      "eccentricity": 0.00035122,
      "inclination_deg": 69.9988,
      "raan_deg": 99.7614,
      "arg_perigee_deg": 268.7158,
      "mean_anomaly_deg": 91.3599,
      "mean_motion_rev_day": 14.98326005
    },
    {
      "epoch": "2026-04-05T14:00:03.000384Z",
      "apogee_km": 574.5230680814229,
      "perigee_km": 569.490746883771,
      "latitude_deg": -10.79647371603183,
      "longitude_deg": -123.13221382669994,
      "height_km": 576.0981439645523,
      "semi_major_axis_km": 6950.143907482597,
      "eccentricity": 0.00036203,
      "inclination_deg": 69.9997,
      "raan_deg": 96.8089,
      "arg_perigee_deg": 273.0921,
      "mean_anomaly_deg": 278.2635,
      "mean_motion_rev_day": 14.9834584
    },
    {
      "epoch": "2026-04-05T17:57:22.161888Z",
      "apogee_km": 574.5494158071388,
      "perigee_km": 569.5994752156457,
      "latitude_deg": 3.025137036131456e-07,
      "longitude_deg": -6.997467362069008,
      "height_km": 574.4580128799387,
      "semi_major_axis_km": 6950.2114455113915,
      "eccentricity": 0.0003561,
      "inclination_deg": 69.9985,
      "raan_deg": 96.3942,
      "arg_perigee_deg": 271.0256,
      "mean_anomaly_deg": 89.0495,
      "mean_motion_rev_day": 14.98324
    },
    {
      "epoch": "2026-04-06T05:10:18.697152Z",
      "apogee_km": 574.559995362134,
      "perigee_km": 569.5969854847335,
      "latitude_deg": 8.44671548868671e-06,
      "longitude_deg": -176.87204160548953,
      "height_km": 574.4648160146577,
      "semi_major_axis_km": 6950.215490423434,
      "eccentricity": 0.00035704,
      "inclination_deg": 69.9984,
      "raan_deg": 95.2158,
      "arg_perigee_deg": 270.9592,
      "mean_anomaly_deg": 89.1158,
      "mean_motion_rev_day": 14.98322692
    },
    {
      "epoch": "2026-04-07T10:01:13.876608Z",
      "apogee_km": 574.4398589518787,
      "perigee_km": 571.7113689766456,
      "latitude_deg": 4.459379597059457e-05,
      "longitude_deg": 106.18448150280284,
      "height_km": 576.3540744390314,
      "semi_major_axis_km": 6951.212613964261,
      "eccentricity": 0.00019626,
      "inclination_deg": 69.9985,
      "raan_deg": 92.187,
      "arg_perigee_deg": 231.302,
      "mean_anomaly_deg": 128.7964,
      "mean_motion_rev_day": 14.98000311
    },
    {
      "epoch": "2026-04-08T06:50:28.658688Z",
      "apogee_km": 574.1958804147625,
      "perigee_km": 569.918591877954,
      "latitude_deg": 3.475147046663626e-05,
      "longitude_deg": 150.82940459558972,
      "height_km": 574.7217367969009,
      "semi_major_axis_km": 6950.194236146358,
      "eccentricity": 0.00030771,
      "inclination_deg": 70.0,
      "raan_deg": 89.9986,
      "arg_perigee_deg": 263.6387,
      "mean_anomaly_deg": 96.4422,
      "mean_motion_rev_day": 14.98329565
    }
  ]
}